EUTELSAT 8 WEST B       
1 40875U 15039B   25236.88609377 -.00000077  00000+0  00000+0 0  9991
2 40875   0.0666 352.6532 0003721 160.4594 131.2892  1.00271250 36689
EUTELSAT 9B             
1 41310U 16005A   25236.81804431  .00000050  00000+0  00000+0 0  9991
2 41310   0.0293  67.1027 0001610 120.3650  89.3357  1.00271145 35142
EUTELSAT 65 WEST A      
1 41382U 16014A   25236.87474041 -.00000287  00000+0  00000+0 0  9999
2 41382   0.0767  50.1753 0002138 105.4246  67.4874  1.00270662 34565
EUTELSAT 117 WEST B     
1 41589U 16038B   25236.73794722 -.00000023  00000+0  00000+0 0  9998
2 41589   0.0092 262.7927 0000145 235.0851 344.0375  1.00272120 33691
EUTELSAT 172B           
1 42741U 17029B   25236.85037112 -.00000017  00000+0  00000+0 0  9999
2 42741   0.0169 157.8684 0000078 284.8880   8.7256  1.00272448 30759
EUTELSAT 7C             
1 44334U 19034B   25236.88904045  .00000037  00000+0  00000+0 0  9999
2 44334   0.0738 187.6929 0003250 314.3334 158.4263  1.00271750  3860
EUTELSAT 5 WEST B       
1 44624U 19067A   25236.88661377 -.00000054  00000+0  00000+0 0  9995
2 44624   0.1042 304.8591 0003090 209.6159 133.0698  1.00270180 21465
EUTELSAT KONNECT        
1 45027U 20005B   25236.88904045  .00000039  00000+0  00000+0 0  9991
2 45027   0.0657 101.6301 0001955  66.5022 132.5130  1.00274009 21350
